OBJECT_NAME,OBJECT_ID,EPOCH,MEAN_MOTION,ECCENTRICITY,INCLINATION,RA_OF_ASC_NODE,ARG_OF_PERICENTER,MEAN_ANOMALY,EPHEMERIS_TYPE,CLASSIFICATION_TYPE,NORAD_CAT_ID,ELEMENT_SET_NO,REV_AT_EPOCH,BSTAR,MEAN_MOTION_DOT,MEAN_MOTION_DDOT
STARLINK-31340,2024-044U,2026-07-17T22:38:29.457600,15.27578256,.00013322,43.0008,51.8676,248.1808,111.8902,0,U,59170,999,13394,.13924914E-4,.121E-5,0
STARLINK-31344,2024-044V,2026-07-17T18:01:43.884768,15.27571397,.00011111,43.0017,92.7782,260.5054,99.5672,0,U,59171,999,13348,-.36782054E-4,-.1274E-4,0
STARLINK-31348,2024-044W,2026-07-17T22:02:53.180448,15.27581930,.00001076,42.9960,44.7433,254.3539,105.7300,0,U,59172,999,13402,.35645923E-3,.9561E-4,0
STARLINK-31289,2024-044X,2026-07-17T01:54:13.836384,15.27587816,.00009285,43.0017,96.3359,253.0399,107.0351,0,U,59173,999,13338,.47556695E-4,.1047E-4,0
STARLINK-31283,2024-044Y,2026-07-17T22:00:01.999584,15.27567048,.00014264,43.0018,44.6585,272.2736,119.3617,0,U,59174,999,586,.68989013E-3,.18763E-3,0
STARLINK-31439,2024-045A,2026-07-17T21:37:20.228448,15.27586288,.00013089,43.0024,73.8857,269.2995,90.7707,0,U,59178,999,6944,.27184615E-3,.7227E-4,0
STARLINK-31410,2024-045B,2026-07-17T23:08:56.864256,15.27577091,.00013253,43.0002,76.9627,271.1590,88.9110,0,U,59179,999,13308,.34154846E-3,.9147E-4,0
STARLINK-31395,2024-045C,2026-07-17T17:23:47.189472,15.27570042,.00012532,43.0062,78.5998,269.3313,90.7395,0,U,59180,999,13304,-.1014148E-5,-.29E-5,0
STARLINK-31486,2024-045D,2026-07-17T17:00:25.586208,15.27571150,.00013023,43.0038,75.0202,278.5749,81.4956,0,U,59181,999,13308,-.37152786E-4,-.1284E-4,0
STARLINK-31411,2024-045E,2026-07-17T22:22:41.357568,15.27572597,.00009366,43.0018,76.7177,272.8161,87.2583,0,U,59182,999,13308,-.12802976E-4,-.614E-5,0
STARLINK-31382,2024-045G,2026-07-17T22:15:18.102240,15.27585659,.00014571,43.0055,76.6785,259.2821,100.7867,0,U,59184,999,13308,-.1281152E-3,-.3787E-4,0
STARLINK-31394,2024-045H,2026-07-17T16:22:57.769248,15.27569152,.00012524,43.0040,67.9133,271.8930,88.1778,0,U,59185,999,13316,-.6184491E-5,-.432E-5,0
STARLINK-31403,2024-045J,2026-07-17T00:06:24.933600,15.27584802,.00010351,43.0058,60.8154,272.5611,87.5123,0,U,59186,999,13312,.53497208E-4,.121E-4,0
STARLINK-31514,2024-045K,2026-07-17T19:55:04.820160,15.27577453,.00011007,43.0025,77.6694,260.4740,99.5987,0,U,59187,999,13306,.371164E-6,-.252E-5,0
STARLINK-31478,2024-045L,2026-07-17T19:40:16.518432,15.27575855,.00015901,43.0000,77.5817,250.7483,109.3197,0,U,59188,999,13306,.16624363E-4,.195E-5,0
STARLINK-31498,2024-045M,2026-07-17T17:08:58.575840,15.27570205,.00011711,43.0035,78.5202,270.6121,89.4597,0,U,59189,999,13304,-.978486E-5,-.531E-5,0
STARLINK-31563,2024-045N,2026-07-17T22:31:54.734880,15.27583642,.00010574,43.0023,76.7615,243.8303,116.2440,0,U,59190,999,13308,.73150299E-4,.1752E-4,0
STARLINK-31551,2024-045P,2026-07-17T22:15:59.029920,15.27577104,.00009026,43.0008,73.2449,253.6634,106.4118,0,U,59191,999,13312,.13450969E-4,.108E-5,0
STARLINK-31536,2024-045Q,2026-07-17T22:00:01.999584,15.27580447,.00013336,42.9991,77.0835,273.5240,239.6759,0,U,59192,999,576,-.29153103E-3,-.8276E-4,0
STARLINK-31548,2024-045R,2026-07-17T22:00:41.687424,15.27607055,.00008543,43.0035,77.4587,270.9197,89.1557,0,U,59193,999,13307,-.22625339E-3,-.6488E-4,0
STARLINK-31542,2024-045S,2026-07-17T17:29:06.834912,15.27519452,.00013699,43.0033,77.7639,242.7142,117.3570,0,U,59194,999,13305,.56046765E-3,.15164E-3,0
STARLINK-31554,2024-045T,2026-07-17T23:14:29.897376,15.27582228,.00011559,43.0013,76.9858,278.3239,81.7481,0,U,59195,999,13308,-.32915749E-4,-.1168E-4,0
STARLINK-31558,2024-045U,2026-07-17T17:34:39.752256,15.27580541,.00015982,43.0041,77.7934,267.2598,92.8070,0,U,59196,999,13306,-.11249902E-3,-.3357E-4,0
STARLINK-31275,2024-045V,2026-07-17T15:29:15.326592,15.27565836,.0000978,43.0002,78.8624,264.0060,96.0680,0,U,59197,999,13303,-.2341E-4,-.906E-5,0
STARLINK-31590,2024-045W,2026-07-17T17:14:31.373952,15.27575099,.00009788,43.0031,78.5471,271.7134,88.3606,0,U,59198,999,13304,.17269432E-4,.213E-5,0
STARLINK-31567,2024-045X,2026-07-17T22:37:28.727040,15.27570783,.00013911,43.0022,76.7886,266.9125,93.1568,0,U,59199,999,13308,.63611911E-4,.1488E-4,0
STARLINK-31503,2024-045Y,2026-07-17T18:00:34.262784,15.27574664,.00011556,43.0006,77.9236,267.5394,92.5325,0,U,59200,999,13305,.79067367E-4,.1914E-4,0
STARLINK-31603,2024-046A,2026-07-17T14:06:37.285056,15.30186577,.0001194,53.1590,272.2579,83.6998,276.4139,0,U,59201,999,13293,.50921E-5,-.208E-5,0
STARLINK-31602,2024-046B,2026-07-17T17:11:09.648960,15.34386987,.00013167,53.1607,268.7977,73.4700,286.6447,0,U,59202,999,13299,.32229449E-4,.712E-5,0
STARLINK-31577,2024-046C,2026-07-17T22:00:01.999584,15.34394655,.00010288,53.1561,267.5878,97.5981,70.7989,0,U,59203,999,587,-.46662802E-3,-.16106E-3,0
