STARLINK-31340          
1 59170U 24044U   26198.94339650  .00000121  00000+0  13925-4 0  9998
2 59170  43.0008  51.8676 0001332 248.1808 111.8902 15.27578256133942
STARLINK-31344          
1 59171U 24044V   26198.75120237 -.00001274  00000+0 -36782-4 0  9995
2 59171  43.0017  92.7782 0001111 260.5054  99.5672 15.27571397133485
STARLINK-31348          
1 59172U 24044W   26198.91867107  .00009561  00000+0  35646-3 0  9990
2 59172  42.9960  44.7433 0000107 254.3539 105.7300 15.27581930134027
STARLINK-31289          
1 59173U 24044X   26198.07932681  .00001047  00000+0  47557-4 0  9994
2 59173  43.0017  96.3359 0000928 253.0399 107.0351 15.27587816133382
STARLINK-31283          
1 59174U 24044Y   26198.91668981  .00018763  00000+0  68989-3 0  9991
2 59174  43.0018  44.6585 0001426 272.2736 119.3617 15.27567048  5860
STARLINK-31439          
1 59178U 24045A   26198.90092857  .00007227  00000+0  27185-3 0  9994
2 59178  43.0024  73.8857 0001308 269.2995  90.7707 15.27586288 69442
STARLINK-31410          
1 59179U 24045B   26198.96454704  .00009147  00000+0  34155-3 0  9992
2 59179  43.0002  76.9627 0001325 271.1590  88.9110 15.27577091133081
STARLINK-31395          
1 59180U 24045C   26198.72485173 -.00000290  00000+0 -10141-5 0  9995
2 59180  43.0062  78.5998 0001253 269.3313  90.7395 15.27570042133041
STARLINK-31486          
1 59181U 24045D   26198.70862947 -.00001284  00000+0 -37153-4 0  9997
2 59181  43.0038  75.0202 0001302 278.5749  81.4956 15.27571150133080
STARLINK-31411          
1 59182U 24045E   26198.93242312 -.00000614  00000+0 -12803-4 0  9992
2 59182  43.0018  76.7177 0000936 272.8161  87.2583 15.27572597133081
STARLINK-31382          
1 59184U 24045G   26198.92729285 -.00003787  00000+0 -12812-3 0  9995
2 59184  43.0055  76.6785 0001457 259.2821 100.7867 15.27585659133088
STARLINK-31394          
1 59185U 24045H   26198.68261307 -.00000432  00000+0 -61845-5 0  9991
2 59185  43.0040  67.9133 0001252 271.8930  88.1778 15.27569152133166
STARLINK-31403          
1 59186U 24045J   26198.00445525  .00001210  00000+0  53497-4 0  9990
2 59186  43.0058  60.8154 0001035 272.5611  87.5123 15.27584802133126
STARLINK-31514          
1 59187U 24045K   26198.82991690 -.00000252  00000+0  37116-6 0  9998
2 59187  43.0025  77.6694 0001100 260.4740  99.5987 15.27577453133066
STARLINK-31478          
1 59188U 24045L   26198.81963563  .00000195  00000+0  16624-4 0  9990
2 59188  43.0000  77.5817 0001590 250.7483 109.3197 15.27575855133062
STARLINK-31498          
1 59189U 24045M   26198.71456685 -.00000531  00000+0 -97849-5 0  9997
2 59189  43.0035  78.5202 0001171 270.6121  89.4597 15.27570205133049
STARLINK-31563          
1 59190U 24045N   26198.93882795  .00001752  00000+0  73150-4 0  9990
2 59190  43.0023  76.7615 0001057 243.8303 116.2440 15.27583642133082
STARLINK-31551          
1 59191U 24045P   26198.92776655  .00000108  00000+0  13451-4 0  9999
2 59191  43.0008  73.2449 0000902 253.6634 106.4118 15.27577104133121
STARLINK-31536          
1 59192U 24045Q   26198.91668981 -.00008276  00000+0 -29153-3 0  9992
2 59192  42.9991  77.0835 0001333 273.5240 239.6759 15.27580447  5767
STARLINK-31548          
1 59193U 24045R   26198.91714916 -.00006488  00000+0 -22625-3 0  9993
2 59193  43.0035  77.4587 0000854 270.9197  89.1557 15.27607055133071
STARLINK-31542          
1 59194U 24045S   26198.72855133  .00015164  00000+0  56047-3 0  9994
2 59194  43.0033  77.7639 0001369 242.7142 117.3570 15.27519452133050
STARLINK-31554          
1 59195U 24045T   26198.96840159 -.00001168  00000+0 -32916-4 0  9994
2 59195  43.0013  76.9858 0001155 278.3239  81.7481 15.27582228133087
STARLINK-31558          
1 59196U 24045U   26198.73240454 -.00003357  00000+0 -11250-3 0  9991
2 59196  43.0041  77.7934 0001598 267.2598  92.8070 15.27580541133060
STARLINK-31275          
1 59197U 24045V   26198.64531628 -.00000906  00000+0 -23410-4 0  9997
2 59197  43.0002  78.8624 0000978 264.0060  96.0680 15.27565836133036
STARLINK-31590          
1 59198U 24045W   26198.71841868  .00000213  00000+0  17269-4 0  9990
2 59198  43.0031  78.5471 0000978 271.7134  88.3606 15.27575099133048
STARLINK-31567          
1 59199U 24045X   26198.94269360  .00001488  00000+0  63612-4 0  9995
2 59199  43.0022  76.7886 0001391 266.9125  93.1568 15.27570783133085
STARLINK-31503          
1 59200U 24045Y   26198.75039656  .00001914  00000+0  79067-4 0  9995
2 59200  43.0006  77.9236 0001155 267.5394  92.5325 15.27574664133058
STARLINK-31603          
1 59201U 24046A   26198.58793154 -.00000208  00000+0  50921-5 0  9993
2 59201  53.1590 272.2579 0001194  83.6998 276.4139 15.30186577132937
STARLINK-31602          
1 59202U 24046B   26198.71608390  .00000712  00000+0  32229-4 0  9995
2 59202  53.1607 268.7977 0001316  73.4700 286.6447 15.34386987132995
STARLINK-31577          
1 59203U 24046C   26198.91668981 -.00016106  00000+0 -46663-3 0  9992
2 59203  53.1561 267.5878 0001028  97.5981  70.7989 15.34394655  5870
